STARLINK-31898          
1 59905U 24100W   26068.21243619  .00002071  00000+0  84769-4 0  9992
2 59905  43.0030 124.6550 0001380 267.8418  92.2276 15.27580842101115
2025-155V               
1 64895U 25155V   26068.85787115  .00013705  00000+0  51002-3 0  9990
2 64895  97.4485  37.2490 0008035 152.8264 207.3397 15.27583301 65579
